SZ-21 MODULE            
1 66515U 25246C   25324.92466527  .00023974  00000+0  27996-3 0  9999
2 66515  41.4745 148.9747 0004547 105.8613 254.2727 15.61038118  1031
