CCSDS_OMM_VERS = 2.0
CREATION_DATE  = 
ORIGINATOR     = 

OBJECT_NAME    = SZ-21 MODULE
OBJECT_ID      = 2025-246C
CENTER_NAME    = EARTH
REF_FRAME      = TEME
TIME_SYSTEM    = UTC
MEAN_ELEMENT_THEORY = SGP/SGP4

EPOCH          = 2025-11-20T22:11:31.079328
MEAN_MOTION    = 15.61038118
ECCENTRICITY   = .0004547
INCLINATION    = 41.4745
RA_OF_ASC_NODE = 148.9747
ARG_OF_PERICENTER = 105.8613
MEAN_ANOMALY   = 254.2727

EPHEMERIS_TYPE = 0
CLASSIFICATION_TYPE = U
NORAD_CAT_ID   = 66515
ELEMENT_SET_NO = 999
REV_AT_EPOCH   = 103
BSTAR          = .27996E-3
MEAN_MOTION_DOT = .23974E-3
MEAN_MOTION_DDOT = 0

